GLOBALSTAR M094         
1 39074U 13005C   24172.62259519 -.00000075  00000+0  15901-3 0  9998
2 39074  51.9932 202.9757 0000397 179.9685 180.1182 12.62267224526716
GLOBALSTAR M078         
1 39076U 13005E   24172.92631577 -.00000181  00000+0 -42894-3 0  9991
2 39076  51.9893 335.2858 0001743 100.7897 259.3166 12.62272916524509
GLOBALSTAR M095         
1 39077U 13005F   24172.87301912 -.00000102  00000+0  11732-4 0  9993
2 39077  51.9819 332.8205 0001425 119.1086 240.9923 12.62264074524141
GLOBALSTAR M087         
1 52888U 22064A   24172.99439260 -.00000085  00000+0  81618-4 0  9994
2 52888  51.9734 195.1063 0009402  15.7399 344.3792 13.37576987 98034
